CSS (TIANHE)            
1 48274U 21035A   24111.35075131  .00031482  00000+0  32109-3 0  9995
2 48274  41.4680  76.4083 0005987  41.2955 318.8337 15.64386756170049
